[ {"name": "STARLINK-33643", "line1": "1 63381U 25063U   26192.75002315 -.00000787  00000+0 -12607-4 0  9993", "line2": "2 63381  53.1594 196.1109 0001348  86.1872 325.1319 15.33540877  5838"}, {"name": "STARLINK-33748", "line1": "1 63383U 25063W   26192.44025639  .00009911  00000+0  30409-3 0  9990", "line2": "2 63383  53.1590 207.7751 0001316  79.7333 280.3818 15.34398575 73561"}, {"name": "STARLINK-33658", "line1": "1 63384U 25063X   26192.41444672  .00011953  00000+0  36422-3 0  9990", "line2": "2 63384  53.1595 194.1229 0000654  38.3263 321.7786 15.34409692 73751"}, {"name": "STARLINK-33616", "line1": "1 63385U 25063Y   26192.51170102  .00006583  00000+0  20576-3 0  9992", "line2": "2 63385  53.1596 207.5181 0001027  79.3424 280.7694 15.34406786 73526"}, {"name": "STARLINK-33571", "line1": "1 63386U 25063Z   26192.07621607  .00010380  00000+0  31778-3 0  9991", "line2": "2 63386  53.1656 207.6258 0000639 225.0567 135.0384 15.34412612 73484"}, {"name": "STARLINK-33533", "line1": "1 63387U 25063AA  26192.54051275  .00012271  00000+0  37375-3 0  9992", "line2": "2 63387  53.1582 193.4887 0000977 104.8994 255.2117 15.34396754 73720"}, {"name": "STARLINK-33629", "line1": "1 63388U 25063AB  26192.01313325  .00018092  00000+0  54541-3 0  9993", "line2": "2 63388  53.1585 195.8866 0001197  91.4152 268.6987 15.34394161 73698"}, {"name": "STARLINK-33656", "line1": "1 63389U 25063AC  26192.54734325 -.00032283  00000+0 -10316-2 0  9990", "line2": "2 63389  53.1592 196.3709 0000363  97.5748 262.5294 15.31744988 73733"}, {"name": "STARLINK-33531", "line1": "1 63399U 25065A   26191.96121999  .00015808  00000+0  58249-3 0  9995", "line2": "2 63399  42.9985 130.8327 0000516 265.5345  94.5448 15.27593519 71699"}, {"name": "STARLINK-33652", "line1": "1 63400U 25065B   26191.21627303  .00015052  00000+0  55533-3 0  9990", "line2": "2 63400  42.9953 134.6992 0001161  56.7006 303.3957 15.27583754 71582"}, {"name": "STARLINK-33707", "line1": "1 63401U 25065C   26192.21891646  .00010925  00000+0  40587-3 0  9992", "line2": "2 63401  43.0000 129.3309 0001064 351.0385   9.0448 15.27586352 71733"}, {"name": "STARLINK-33668", "line1": "1 63402U 25065D   26192.23689358  .00016943  00000+0  62352-3 0  9990", "line2": "2 63402  43.0004 129.4579 0001702 264.9182  95.1475 15.27595438 71735"}, {"name": "STARLINK-33676", "line1": "1 63403U 25065E   26190.25602348  .00012512  00000+0  46290-3 0  9996", "line2": "2 63403  43.0084 140.3866 0002803 254.0331 106.0212 15.27616112 71435"}, {"name": "STARLINK-33711", "line1": "1 63404U 25065F   26190.23418589  .00012486  00000+0  46203-3 0  9991", "line2": "2 63404  43.0067 140.2237 0001661 253.5095 106.5574 15.27612019 71438"}, {"name": "STARLINK-33708", "line1": "1 63405U 25065G   26191.24068238  .00016951  00000+0  62395-3 0  9997", "line2": "2 63405  43.0016 134.8800 0001430 278.3110  81.7579 15.27586650 71581"}, {"name": "STARLINK-33690", "line1": "1 63406U 25065H   26192.19112059  .00013122  00000+0  48542-3 0  9999", "line2": "2 63406  43.0018 125.6562 0001515 267.4315  92.6363 15.27585925 71774"}, {"name": "STARLINK-33694", "line1": "1 63407U 25065J   26192.21375984  .00010172  00000+0  37841-3 0  9993", "line2": "2 63407  43.0031 129.2780 0002518 257.8764 102.1806 15.27602494 71733"}, {"name": "STARLINK-33692", "line1": "1 63408U 25065K   26192.19158389  .00016284  00000+0  59979-3 0  9995", "line2": "2 63408  42.9989 133.4239 0001267 259.9847 100.0862 15.27588550 71684"}, {"name": "STARLINK-33693", "line1": "1 63409U 25065L   26192.23176204  .00018562  00000+0  68175-3 0  9996", "line2": "2 63409  43.0004 129.4099 0000543 294.0015  66.0779 15.27609719 71732"}, {"name": "STARLINK-33677", "line1": "1 63410U 25065M   26192.22404986  .00009542  00000+0  35577-3 0  9996", "line2": "2 63410  43.0014 129.3506 0000539 277.5201  82.5589 15.27584791 71739"}, {"name": "STARLINK-33647", "line1": "1 63411U 25065N   26192.27193344  .00014892  00000+0  54919-3 0  9990", "line2": "2 63411  42.9782 136.6557 0005884  52.4939 307.6446 15.27591989 71654"}, {"name": "STARLINK-33645", "line1": "1 63412U 25065P   26192.21583942  .00013473  00000+0  49780-3 0  9996", "line2": "2 63412  43.0021 132.6863 0000852 288.3627  71.7132 15.27608352 71691"}, {"name": "STARLINK-33670", "line1": "1 63413U 25065Q   26192.22017770  .00012589  00000+0  46590-3 0  9992", "line2": "2 63413  43.0050 129.2924 0003124 280.5693  79.4807 15.27600517 71730"}, {"name": "STARLINK-33644", "line1": "1 63414U 25065R   26192.20105701  .00009709  00000+0  36180-3 0  9997", "line2": "2 63414  43.0001 129.9981 0000429 330.2568  29.8259 15.27585552 71726"}, {"name": "STARLINK-33664", "line1": "1 63415U 25065S   26191.18171811  .00013548  00000+0  50061-3 0  9999", "line2": "2 63415  43.0003 135.2504 0001414  10.7187 349.3694 15.27602328 71579"}, {"name": "STARLINK-33649", "line1": "1 63416U 25065T   26192.21504092  .00011280  00000+0  41841-3 0  9993", "line2": "2 63416  43.0033 129.2309 0001563 277.3316  82.7358 15.27610161 71736"}, {"name": "STARLINK-33535", "line1": "1 63417U 25065U   26192.22661486  .00017080  00000+0  62812-3 0  9991", "line2": "2 63417  43.0007 129.3050 0000696  66.0769 294.0155 15.27613958 71733"}, {"name": "STARLINK-33703", "line1": "1 63418U 25065V   26192.18179055  .00011099  00000+0  41201-3 0  9996", "line2": "2 63418  42.9986 129.8452 0001269 284.6011  75.4700 15.27598217 71720"}]