OBJECT_NAME,OBJECT_ID,EPOCH,MEAN_MOTION,ECCENTRICITY,INCLINATION,RA_OF_ASC_NODE,ARG_OF_PERICENTER,MEAN_ANOMALY,EPHEMERIS_TYPE,CLASSIFICATION_TYPE,NORAD_CAT_ID,ELEMENT_SET_NO,REV_AT_EPOCH,BSTAR,MEAN_MOTION_DOT,MEAN_MOTION_DDOT
STARLINK-33643,2025-063U,2026-07-11T18:00:02.000160,15.33540877,.00013484,53.1594,196.1109,86.1872,325.1319,0,U,63381,999,583,-.12607496E-4,-.787E-5,0
STARLINK-33748,2025-063W,2026-07-11T10:33:58.152096,15.34398575,.00013163,53.1590,207.7751,79.7333,280.3818,0,U,63383,999,7356,.30408911E-3,.9911E-4,0
STARLINK-33658,2025-063X,2026-07-11T09:56:48.196608,15.34409692,.00006545,53.1595,194.1229,38.3263,321.7786,0,U,63384,999,7375,.36421924E-3,.11953E-3,0
STARLINK-33616,2025-063Y,2026-07-11T12:16:50.968128,15.34406786,.00010273,53.1596,207.5181,79.3424,280.7694,0,U,63385,999,7352,.20575662E-3,.6583E-4,0
STARLINK-33571,2025-063Z,2026-07-11T01:49:45.068448,15.34412612,.00006392,53.1656,207.6258,225.0567,135.0384,0,U,63386,999,7348,.31778288E-3,.1038E-3,0
STARLINK-33533,2025-063AA,2026-07-11T12:58:20.301600,15.34396754,.00009777,53.1582,193.4887,104.8994,255.2117,0,U,63387,999,7372,.37375353E-3,.12271E-3,0
STARLINK-33629,2025-063AB,2026-07-11T00:18:54.712800,15.34394161,.00011974,53.1585,195.8866,91.4152,268.6987,0,U,63388,999,7369,.54540807E-3,.18092E-3,0
STARLINK-33656,2025-063AC,2026-07-11T13:08:10.456800,15.31744988,.0000363,53.1592,196.3709,97.5748,262.5294,0,U,63389,999,7373,-.10316023E-2,-.32283E-3,0
STARLINK-33531,2025-065A,2026-07-10T23:04:09.407136,15.27593519,.00005169,42.9985,130.8327,265.5345,94.5448,0,U,63399,999,7169,.58249314E-3,.15808E-3,0
STARLINK-33652,2025-065B,2026-07-10T05:11:25.989792,15.27583754,.00011618,42.9953,134.6992,56.7006,303.3957,0,U,63400,999,7158,.55532636E-3,.15052E-3,0
STARLINK-33707,2025-065C,2026-07-11T05:15:14.382144,15.27586352,.00010644,43.0000,129.3309,351.0385,9.0448,0,U,63401,999,7173,.40587245E-3,.10925E-3,0
STARLINK-33668,2025-065D,2026-07-11T05:41:07.605312,15.27595438,.00017024,43.0004,129.4579,264.9182,95.1475,0,U,63402,999,7173,.62352152E-3,.16943E-3,0
STARLINK-33676,2025-065E,2026-07-09T06:08:40.428672,15.27616112,.00028035,43.0084,140.3866,254.0331,106.0212,0,U,63403,999,7143,.46289989E-3,.12512E-3,0
STARLINK-33711,2025-065F,2026-07-09T05:37:13.660896,15.27612019,.00016611,43.0067,140.2237,253.5095,106.5574,0,U,63404,999,7143,.46203188E-3,.12486E-3,0
STARLINK-33708,2025-065G,2026-07-10T05:46:34.957632,15.27586650,.000143,43.0016,134.8800,278.3110,81.7579,0,U,63405,999,7158,.62395262E-3,.16951E-3,0
STARLINK-33690,2025-065H,2026-07-11T04:35:12.818976,15.27585925,.00015155,43.0018,125.6562,267.4315,92.6363,0,U,63406,999,7177,.48541548E-3,.13122E-3,0
STARLINK-33694,2025-065J,2026-07-11T05:07:48.850176,15.27602494,.00025181,43.0031,129.2780,257.8764,102.1806,0,U,63407,999,7173,.3784071E-3,.10172E-3,0
STARLINK-33692,2025-065K,2026-07-11T04:35:52.848096,15.27588550,.00012679,42.9989,133.4239,259.9847,100.0862,0,U,63408,999,7168,.59978643E-3,.16284E-3,0
STARLINK-33693,2025-065L,2026-07-11T05:33:44.240256,15.27609719,.00005433,43.0004,129.4099,294.0015,66.0779,0,U,63409,999,7173,.68174918E-3,.18562E-3,0
STARLINK-33677,2025-065M,2026-07-11T05:22:37.907904,15.27584791,.00005398,43.0014,129.3506,277.5201,82.5589,0,U,63410,999,7173,.35577381E-3,.9542E-4,0
STARLINK-33647,2025-065N,2026-07-11T06:31:35.049216,15.27591989,.00058847,42.9782,136.6557,52.4939,307.6446,0,U,63411,999,7165,.54918667E-3,.14892E-3,0
STARLINK-33645,2025-065P,2026-07-11T05:10:48.525888,15.27608352,.00008527,43.0021,132.6863,288.3627,71.7132,0,U,63412,999,7169,.49780145E-3,.13473E-3,0
STARLINK-33670,2025-065Q,2026-07-11T05:17:03.353280,15.27600517,.00031249,43.0050,129.2924,280.5693,79.4807,0,U,63413,999,7173,.46590295E-3,.12589E-3,0
STARLINK-33644,2025-065R,2026-07-11T04:49:31.325664,15.27585552,.00004299,43.0001,129.9981,330.2568,29.8259,0,U,63414,999,7172,.36180055E-3,.9709E-4,0
STARLINK-33664,2025-065S,2026-07-10T04:21:40.444704,15.27602328,.00014143,43.0003,135.2504,10.7187,349.3694,0,U,63415,999,7157,.50061367E-3,.13548E-3,0
STARLINK-33649,2025-065T,2026-07-11T05:09:39.535488,15.27610161,.00015633,43.0033,129.2309,277.3316,82.7358,0,U,63416,999,7173,.41841423E-3,.1128E-3,0
STARLINK-33535,2025-065U,2026-07-11T05:26:19.523904,15.27613958,.00006967,43.0007,129.3050,66.0769,294.0155,0,U,63417,999,7173,.62811646E-3,.1708E-3,0
STARLINK-33703,2025-065V,2026-07-11T04:21:46.703520,15.27598217,.00012692,42.9986,129.8452,284.6011,75.4700,0,U,63418,999,7172,.41201498E-3,.11099E-3,0
